{
  "norad_id": 58846,
  "name": "STARLINK-31273",
  "history": [
    {
      "epoch": "2026-04-13T05:49:25.677120Z",
      "apogee_km": 476.19356220305417,
      "perigee_km": 474.2592689126459,
      "latitude_deg": -7.20401572332784e-05,
      "longitude_deg": 115.22571426771482,
      "height_km": 476.04581379272463,
      "semi_major_axis_km": 6853.363415557849,
      "eccentricity": 0.00014112,
      "inclination_deg": 53.1616,
      "raan_deg": 44.019,
      "arg_perigee_deg": 85.3342,
      "mean_anomaly_deg": 274.7819,
      "mean_motion_rev_day": 15.301962
    },
    {
      "epoch": "2026-04-14T19:26:42.531936Z",
      "apogee_km": 476.12856306344474,
      "perigee_km": 474.33023971972034,
      "latitude_deg": 3.987911098985541e-05,
      "longitude_deg": -97.92008296794548,
      "height_km": 476.25876911178216,
      "semi_major_axis_km": 6853.366401391582,
      "eccentricity": 0.0001312,
      "inclination_deg": 53.1613,
      "raan_deg": 36.7384,
      "arg_perigee_deg": 98.3903,
      "mean_anomaly_deg": 261.7247,
      "mean_motion_rev_day": 15.301952
    },
    {
      "epoch": "2026-04-15T12:41:16.863360Z",
      "apogee_km": 475.6094958125841,
      "perigee_km": 474.6938964427818,
      "latitude_deg": -2.254613555278211e-05,
      "longitude_deg": -0.6081152313151413,
      "height_km": 476.0645796343697,
      "semi_major_axis_km": 6853.288696127683,
      "eccentricity": 6.68e-05,
      "inclination_deg": 53.1626,
      "raan_deg": 33.4016,
      "arg_perigee_deg": 91.717,
      "mean_anomaly_deg": 268.3907,
      "mean_motion_rev_day": 15.30221225
    },
    {
      "epoch": "2026-04-16T12:12:05.677920Z",
      "apogee_km": 476.10940500515517,
      "perigee_km": 474.3700179957759,
      "latitude_deg": -4.554916479368531e-06,
      "longitude_deg": 1.172238497233846,
      "height_km": 476.28702978556584,
      "semi_major_axis_km": 6853.376711500466,
      "eccentricity": 0.0001269,
      "inclination_deg": 53.1625,
      "raan_deg": 28.851,
      "arg_perigee_deg": 99.8617,
      "mean_anomaly_deg": 260.2527,
      "mean_motion_rev_day": 15.30191747
    },
    {
      "epoch": "2026-04-17T17:59:06.654912Z",
      "apogee_km": 476.410058734441,
      "perigee_km": 474.04167359515213,
      "latitude_deg": -1.1454654718846638e-05,
      "longitude_deg": -92.56940482853305,
      "height_km": 476.27635111201437,
      "semi_major_axis_km": 6853.362866164796,
      "eccentricity": 0.00017279,
      "inclination_deg": 53.1626,
      "raan_deg": 23.0866,
      "arg_perigee_deg": 97.4115,
      "mean_anomaly_deg": 262.7082,
      "mean_motion_rev_day": 15.30196384
    },
    {
      "epoch": "2026-04-19T02:54:13.428000Z",
      "apogee_km": 476.26544994372944,
      "perigee_km": 474.37595165561925,
      "latitude_deg": 2.7541292157325435e-05,
      "longitude_deg": 125.93158642070664,
      "height_km": 476.1983036878075,
      "semi_major_axis_km": 6853.457700799674,
      "eccentricity": 0.00013785,
      "inclination_deg": 53.1624,
      "raan_deg": 16.7177,
      "arg_perigee_deg": 88.7528,
      "mean_anomaly_deg": 271.3631,
      "mean_motion_rev_day": 15.30164623
    },
    {
      "epoch": "2026-04-20T10:15:17.757504Z",
      "apogee_km": 476.3042217364855,
      "perigee_km": 474.19598279608545,
      "latitude_deg": 8.087675997320475e-06,
      "longitude_deg": 8.306482136423202,
      "height_km": 476.346795599324,
      "semi_major_axis_km": 6853.387102266285,
      "eccentricity": 0.00015381,
      "inclination_deg": 53.1628,
      "raan_deg": 10.6482,
      "arg_perigee_deg": 100.863,
      "mean_anomaly_deg": 259.2544,
      "mean_motion_rev_day": 15.30188267
    },
    {
      "epoch": "2026-04-21T20:44:28.030848Z",
      "apogee_km": 475.8705594987814,
      "perigee_km": 474.6150203212701,
      "latitude_deg": 3.352497472996849e-05,
      "longitude_deg": -157.07840541703737,
      "height_km": 476.17118554458176,
      "semi_major_axis_km": 6853.3797899100255,
      "eccentricity": 9.16e-05,
      "inclination_deg": 53.1609,
      "raan_deg": 3.9724,
      "arg_perigee_deg": 92.7167,
      "mean_anomaly_deg": 267.3939,
      "mean_motion_rev_day": 15.30190716
    },
    {
      "epoch": "2026-04-22T03:00:41.304384Z",
      "apogee_km": 476.34426611708477,
      "perigee_km": 474.1637912274018,
      "latitude_deg": 2.081913892423581e-05,
      "longitude_deg": 107.39546377808625,
      "height_km": 476.45835721487174,
      "semi_major_axis_km": 6853.391028672243,
      "eccentricity": 0.00015908,
      "inclination_deg": 53.1606,
      "raan_deg": 2.7591,
      "arg_perigee_deg": 106.331,
      "mean_anomaly_deg": 253.7866,
      "mean_motion_rev_day": 15.30186952
    },
    {
      "epoch": "2026-04-22T23:23:21.878592Z",
      "apogee_km": 475.88585620370486,
      "perigee_km": 474.52067082321355,
      "latitude_deg": 1.2610537889082968e-05,
      "longitude_deg": 156.94670425252102,
      "height_km": 476.11900464416095,
      "semi_major_axis_km": 6853.340263513459,
      "eccentricity": 9.96e-05,
      "inclination_deg": 53.1615,
      "raan_deg": 358.8163,
      "arg_perigee_deg": 91.4384,
      "mean_anomaly_deg": 268.6731,
      "mean_motion_rev_day": 15.30203954
    },
    {
      "epoch": "2026-04-24T20:50:54.841056Z",
      "apogee_km": 476.0760235931575,
      "perigee_km": 474.3736485130821,
      "latitude_deg": 2.6559347633140116e-05,
      "longitude_deg": -175.60647278465476,
      "height_km": 475.8052812776267,
      "semi_major_axis_km": 6853.36183605312,
      "eccentricity": 0.0001242,
      "inclination_deg": 53.1605,
      "raan_deg": 350.0174,
      "arg_perigee_deg": 68.0737,
      "mean_anomaly_deg": 292.0396,
      "mean_motion_rev_day": 15.30196729
    },
    {
      "epoch": "2026-04-25T20:21:42.325056Z",
      "apogee_km": 476.11464295168116,
      "perigee_km": 474.43007493125333,
      "latitude_deg": 7.122569913449713e-05,
      "longitude_deg": -173.82094207594196,
      "height_km": 476.2922866782391,
      "semi_major_axis_km": 6853.409358941467,
      "eccentricity": 0.0001229,
      "inclination_deg": 53.1612,
      "raan_deg": 345.4664,
      "arg_perigee_deg": 98.3056,
      "mean_anomaly_deg": 261.8085,
      "mean_motion_rev_day": 15.30180813
    },
    {
      "epoch": "2026-04-26T21:26:33.708480Z",
      "apogee_km": 475.9072844244147,
      "perigee_km": 474.54195772226467,
      "latitude_deg": 1.412575399328635e-06,
      "longitude_deg": 164.08207120162854,
      "height_km": 476.0393029818729,
      "semi_major_axis_km": 6853.36162107334,
      "eccentricity": 9.961e-05,
      "inclination_deg": 53.1603,
      "raan_deg": 340.6136,
      "arg_perigee_deg": 82.9484,
      "mean_anomaly_deg": 277.163,
      "mean_motion_rev_day": 15.30196801
    },
    {
      "epoch": "2026-04-27T20:57:21.926880Z",
      "apogee_km": 475.95917104796445,
      "perigee_km": 474.5377789004551,
      "latitude_deg": -1.0356671105990548e-05,
      "longitude_deg": 165.8661924316298,
      "height_km": 476.08813109156404,
      "semi_major_axis_km": 6853.3854749742095,
      "eccentricity": 0.0001037,
      "inclination_deg": 53.1603,
      "raan_deg": 336.0643,
      "arg_perigee_deg": 85.2566,
      "mean_anomaly_deg": 274.8553,
      "mean_motion_rev_day": 15.30188812
    },
    {
      "epoch": "2026-04-28T20:28:09.810048Z",
      "apogee_km": 476.0688700301289,
      "perigee_km": 474.41720544103555,
      "latitude_deg": -3.067778200175454e-05,
      "longitude_deg": 167.64820784684397,
      "height_km": 476.2077294967108,
      "semi_major_axis_km": 6853.380037735582,
      "eccentricity": 0.0001205,
      "inclination_deg": 53.1609,
      "raan_deg": 331.5115,
      "arg_perigee_deg": 94.6136,
      "mean_anomaly_deg": 265.5002,
      "mean_motion_rev_day": 15.30190633
    },
    {
      "epoch": "2026-04-29T19:58:57.783936Z",
      "apogee_km": 475.97910862180925,
      "perigee_km": 474.512484703323,
      "latitude_deg": 2.9964807738673748e-05,
      "longitude_deg": 169.43290415424477,
      "height_km": 476.26746104494276,
      "semi_major_axis_km": 6853.382796662566,
      "eccentricity": 0.000107,
      "inclination_deg": 53.1608,
      "raan_deg": 326.9617,
      "arg_perigee_deg": 99.6736,
      "mean_anomaly_deg": 260.4386,
      "mean_motion_rev_day": 15.30189709
    },
    {
      "epoch": "2026-04-30T06:57:20.563776Z",
      "apogee_km": 476.15614939175157,
      "perigee_km": 474.4172987244847,
      "latitude_deg": -1.5603401850409812e-06,
      "longitude_deg": 2.264719707284188,
      "height_km": 476.33268223986335,
      "semi_major_axis_km": 6853.423724058118,
      "eccentricity": 0.00012686,
      "inclination_deg": 53.1611,
      "raan_deg": 324.8391,
      "arg_perigee_deg": 99.7843,
      "mean_anomaly_deg": 260.3301,
      "mean_motion_rev_day": 15.30176002
    },
    {
      "epoch": "2026-05-01T22:08:39.897600Z",
      "apogee_km": 476.04082648040094,
      "perigee_km": 474.4302839299271,
      "latitude_deg": -2.0945325868732877e-05,
      "longitude_deg": 125.23922321514621,
      "height_km": 476.23842885847404,
      "semi_major_axis_km": 6853.372555205164,
      "eccentricity": 0.0001175,
      "inclination_deg": 53.1608,
      "raan_deg": 317.2536,
      "arg_perigee_deg": 97.4614,
      "mean_anomaly_deg": 262.652,
      "mean_motion_rev_day": 15.30193139
    },
    {
      "epoch": "2026-05-03T18:02:09.282912Z",
      "apogee_km": 475.9585712519465,
      "perigee_km": 474.4960633066403,
      "latitude_deg": -1.6772235963454537e-05,
      "longitude_deg": 176.56732324369966,
      "height_km": 476.2108362090145,
      "semi_major_axis_km": 6853.364317279294,
      "eccentricity": 0.0001067,
      "inclination_deg": 53.162,
      "raan_deg": 308.7567,
      "arg_perigee_deg": 96.6707,
      "mean_anomaly_deg": 263.4415,
      "mean_motion_rev_day": 15.30195898
    }
  ]
}